{
  "norad_id": 42939,
  "name": "COSMOS 2522 [GLONASS-M]",
  "history": [
    {
      "epoch": "2026-03-24T04:29:20.025312",
      "apogee_km": 19149.972873956107,
      "perigee_km": 19109.833421979263,
      "latitude_deg": 30.549633687861924,
      "longitude_deg": -92.14441632013768,
      "semi_major_axis_km": 25508.040147967684,
      "eccentricity": 0.0007868,
      "inclination_deg": 64.0784,
      "raan_deg": 194.7748,
      "arg_perigee_deg": 230.2375,
      "mean_anomaly_deg": 129.7005,
      "mean_motion_rev_day": 2.13101803
    }
  ]
}